NORAD_CAT_ID,OBJECT_NAME,OBJECT_TYPE,EPOCH,MEAN_MOTION,ECCENTRICITY,INCLINATION,RA_OF_ASC_NODE,ARG_OF_PERICENTER,MEAN_ANOMALY,BSTAR,MEAN_MOTION_DOT,MEAN_MOTION_DDOT,TLE_LINE0,TLE_LINE1,TLE_LINE2,SEMIMAJOR_AXIS,PERIOD,APOGEE,PERIGEE,DECAYED
55649.0,STARLINK-5469,PAYLOAD,2023-12-22 13:26:49,14.98324135,0.0002503,70.0013,61.9545,263.9278,96.1595,2.8186e-05,2.43e-06,0.0,0 STARLINK-5469,1 55649U 23021X   23356.56029566  .00000243  00000-0  28186-4 0  9993,2 55649  70.0013  61.9545 0002503 263.9278  96.1595 14.98324135 47746,6950.211,96.107,573.816,570.336,0.0
55649.0,STARLINK-5469,PAYLOAD,2023-12-22 15:02:57,14.98324107,0.0002512,70.0013,61.7857,266.5751,93.5121,2.6447e-05,2.23e-06,0.0,0 STARLINK-5469,1 55649U 23021X   23356.62705606  .00000223  00000-0  26447-4 0  9992,2 55649  70.0013  61.7857 0002512 266.5751  93.5121 14.98324107 47751,6950.211,96.107,573.822,570.33,0.0
55649.0,STARLINK-5469,PAYLOAD,2023-12-23 03:52:01,14.98335603,0.0002472,70.0011,60.4391,260.6383,99.4497,-3.3041e-05,-4.87e-06,0.0,0 STARLINK-5469,1 55649U 23021X   23357.16112984 -.00000487  00000-0 -33041-4 0  9995,2 55649  70.0011  60.4391 0002472 260.6383  99.4497 14.98335603 47539,6950.176,96.107,573.759,570.322,0.0
55649.0,STARLINK-5469,PAYLOAD,2023-12-23 13:28:50,14.98334122,0.0002484,70.0011,59.4288,262.0298,98.058,-4.0388e-05,-5.75e-06,0.0,0 STARLINK-5469,1 55649U 23021X   23357.56168998 -.00000575  00000-0 -40388-4 0  9995,2 55649  70.0011  59.4288 0002484 262.0298  98.0580 14.98334122 47898,6950.18,96.107,573.772,570.319,0.0
55649.0,STARLINK-5469,PAYLOAD,2023-12-24 03:54:02,14.98331362,0.0002626,70.0008,57.9135,263.1849,96.9012,5.33e-05,5.43e-06,0.0,0 STARLINK-5469,1 55649U 23021X   23358.16252748  .00000543  00000-0  53300-4 0  9990,2 55649  70.0008  57.9135 0002626 263.1849  96.9012 14.98331362 47687,6950.189,96.107,573.879,570.229,0.0
55649.0,STARLINK-5469,PAYLOAD,2023-12-24 13:30:50,14.9833243,0.0002649,70.0007,56.9037,261.1639,98.922,5.5035e-05,5.64e-06,0.0,0 STARLINK-5469,1 55649U 23021X   23358.56308603  .00000564  00000-0  55035-4 0  9996,2 55649  70.0007  56.9037 0002649 261.1639  98.9220 14.98332430 48047,6950.185,96.107,573.891,570.209,0.0
55649.0,STARLINK-5469,PAYLOAD,2023-12-25 11:56:43,14.98330779,0.000264,70.0008,54.5473,257.3963,102.6901,-1.8071e-06,-1.14e-06,0.0,0 STARLINK-5469,1 55649U 23021X   23359.49772699 -.00000114  00000-0 -18071-5 0  9992,2 55649  70.0008  54.5473 0002640 257.3963 102.6901 14.98330779 47888,6950.19,96.107,573.89,570.221,0.0
55649.0,STARLINK-5469,PAYLOAD,2023-12-25 13:32:51,14.98331352,0.0002646,70.0008,54.379,258.2943,101.7919,3.2875e-06,-5.4e-07,0.0,0 STARLINK-5469,1 55649U 23021X   23359.56448643 -.00000054  00000-0  32875-5 0  9999,2 55649  70.0008  54.3790 0002646 258.2943 101.7919 14.98331352 48194,6950.189,96.107,573.893,570.215,0.0
55649.0,STARLINK-5469,PAYLOAD,2023-12-26 11:58:44,14.98325803,0.0002615,70.0009,52.0221,252.6561,107.4312,-5.5758e-05,-7.58e-06,0.0,0 STARLINK-5469,1 55649U 23021X   23360.49913165 -.00000758  00000-0 -55758-4 0  9995,2 55649  70.0009  52.0221 0002615 252.6561 107.4312 14.98325803 48036,6950.206,96.107,573.888,570.253,0.0
55649.0,STARLINK-5469,PAYLOAD,2023-12-26 13:34:52,14.98331152,0.000292,69.9999,51.8527,265.9367,94.1458,-3.3456e-06,-1.33e-06,0.0,0 STARLINK-5469,1 55649U 23021X   23360.56588704 -.00000133  00000-0 -33456-5 0  9999,2 55649  69.9999  51.8527 0002920 265.9367  94.1458 14.98331152 48348,6950.189,96.107,574.084,570.025,0.0
55649.0,STARLINK-5469,PAYLOAD,2023-12-27 12:00:45,14.98324247,0.0002563,70.0026,49.5007,233.1413,126.9511,5.6784e-05,5.85e-06,0.0,0 STARLINK-5469,1 55649U 23021X   23361.50052920  .00000585  00000-0  56784-4 0  9997,2 55649  70.0026  49.5007 0002563 233.1413 126.9511 14.98324247 48184,6950.211,96.107,573.857,570.294,0.0
55649.0,STARLINK-5469,PAYLOAD,2023-12-27 13:36:53,14.98333272,0.0002658,70.0009,49.3306,277.7078,82.3779,4.317e-05,4.22e-06,0.0,0 STARLINK-5469,1 55649U 23021X   23361.56728571  .00000422  00000-0  43170-4 0  9990,2 55649  70.0009  49.3306 0002658 277.7078  82.3779 14.98333272 48494,6950.183,96.107,573.895,570.2,0.0
55649.0,STARLINK-5469,PAYLOAD,2023-12-28 04:02:06,14.98321171,0.0002774,70.0027,47.8163,260.8446,99.2399,4.6236e-05,4.59e-06,0.0,0 STARLINK-5469,1 55649U 23021X   23362.16813137  .00000459  00000-0  46236-4 0  9996,2 55649  70.0027  47.8163 0002774 260.8446  99.2399 14.98321171 48286,6950.22,96.108,574.013,570.157,0.0
55649.0,STARLINK-5469,PAYLOAD,2023-12-28 13:38:59,14.98258668,0.0002718,70.0003,46.8031,265.2628,94.822,-0.00071781,-8.631e-05,0.0,0 STARLINK-5469,1 55649U 23021X   23362.56874796 -.00008631  00000-0 -71781-3 0  9992,2 55649  70.0003  46.8031 0002718 265.2628  94.8220 14.98258668 48646,6950.413,96.112,574.168,570.389,0.0
55649.0,STARLINK-5469,PAYLOAD,2023-12-29 04:04:07,14.9831826,0.000273,70.0001,45.2874,260.5062,99.5788,0.00020105,2.306e-05,0.0,0 STARLINK-5469,1 55649U 23021X   23363.16952828  .00002306  00000-0  20105-3 0  9997,2 55649  70.0001  45.2874 0002730 260.5062  99.5788 14.98318260 48439,6950.229,96.108,573.992,570.197,0.0
55649.0,STARLINK-5469,PAYLOAD,2023-12-29 12:04:47,14.98330537,0.0002634,70.0003,44.4459,262.5621,97.5239,1.2073e-05,5.1e-07,0.0,0 STARLINK-5469,1 55649U 23021X   23363.50332728  .00000051  00000-0  12073-4 0  9997,2 55649  70.0003  44.4459 0002634 262.5621  97.5239 14.98330537 48785,6950.191,96.107,573.887,570.226,0.0
55649.0,STARLINK-5469,PAYLOAD,2023-12-30 12:06:48,14.98331784,0.000279,70.0,41.9211,265.6909,94.3931,4.1578e-05,4.03e-06,0.0,0 STARLINK-5469,1 55649U 23021X   23364.50472400  .00000403  00000-0  41578-4 0  9993,2 55649  70.0000  41.9211 0002790 265.6909  94.3931 14.98331784 48639,6950.187,96.107,573.991,570.113,0.0
55649.0,STARLINK-5469,PAYLOAD,2023-12-30 13:42:56,14.9833374,0.0002794,69.9999,41.7524,262.2223,97.8619,6.1534e-05,6.41e-06,0.0,0 STARLINK-5469,1 55649U 23021X   23364.57148188  .00000641  00000-0  61534-4 0  9991,2 55649  69.9999  41.7524 0002794 262.2223  97.8619 14.98333740 48943,6950.181,96.107,573.988,570.104,0.0
55649.0,STARLINK-5469,PAYLOAD,2023-12-31 12:08:48,14.98332323,0.000286,69.9999,39.3959,261.2354,98.8481,1.3692e-06,-7.7e-07,0.0,0 STARLINK-5469,1 55649U 23021X   23365.50612158 -.00000077  00000-0  13692-5 0  9995,2 55649  69.9999  39.3959 0002860 261.2354  98.8481 14.98332323 48782,6950.186,96.107,574.038,570.063,0.0
55649.0,STARLINK-5469,PAYLOAD,2024-01-01 12:10:50,14.98325888,0.0002872,70.0,36.8714,259.0805,101.0031,-8.922e-05,-1.157e-05,0.0,0 STARLINK-5469,1 55649U 23021X   24001.50752787 -.00001157  00000-0 -89220-4 0  9996,2 55649  70.0000  36.8714 0002872 259.0805 101.0031 14.98325888 48931,6950.206,96.107,574.067,570.075,0.0
55649.0,STARLINK-5469,PAYLOAD,2024-01-02 04:12:10,14.98330099,0.0003064,69.9998,35.187,271.6464,88.4344,2.172e-05,1.66e-06,0.0,0 STARLINK-5469,1 55649U 23021X   24002.17512248  .00000166  00000-0  21720-4 0  9994,2 55649  69.9998  35.1870 0003064 271.6464  88.4344 14.98330099 49031,6950.193,96.107,574.187,569.928,0.0
55649.0,STARLINK-5469,PAYLOAD,2024-01-02 12:12:50,14.98333481,0.0003054,69.9998,34.3456,272.0018,88.0792,3.7674e-05,3.57e-06,0.0,0 STARLINK-5469,1 55649U 23021X   24002.50891964  .00000357  00000-0  37674-4 0  9993,2 55649  69.9998  34.3456 0003054 272.0018  88.0792 14.98333481 49380,6950.182,96.107,574.17,569.925,0.0
55649.0,STARLINK-5469,PAYLOAD,2024-01-03 04:14:12,14.9832184,0.000293,70.0001,32.6623,275.1276,84.9548,2.131e-05,1.61e-06,0.0,0 STARLINK-5469,1 55649U 23021X   24003.17652854  .00000161  00000-0  21310-4 0  9993,2 55649  70.0001  32.6623 0002930 275.1276  84.9548 14.98321840 49185,6950.218,96.108,574.12,570.047,0.0
55649.0,STARLINK-5469,PAYLOAD,2024-01-03 12:14:52,14.98323277,0.0002694,70.0004,31.8207,270.8225,89.2625,4.8164e-05,4.82e-06,0.0,0 STARLINK-5469,1 55649U 23021X   24003.51032841  .00000482  00000-0  48164-4 0  9991,2 55649  70.0004  31.8207 0002694 270.8225  89.2625 14.98323277 49539,6950.214,96.107,573.951,570.206,0.0
55649.0,STARLINK-5469,PAYLOAD,2024-01-04 04:16:10,14.98352884,0.0002832,70.0003,30.1377,264.9953,95.0883,0.000214,2.463e-05,0.0,0 STARLINK-5469,1 55649U 23021X   24004.17789842  .00002463  00000-0  21400-3 0  9998,2 55649  70.0003  30.1377 0002832 264.9953  95.0883 14.98352884 49339,6950.122,96.106,573.955,570.019,0.0
55649.0,STARLINK-5469,PAYLOAD,2024-01-04 10:40:42,14.98355253,0.0002758,70.0002,29.4641,265.4309,94.6535,0.0002217,2.555e-05,0.0,0 STARLINK-5469,1 55649U 23021X   24004.44493276  .00002555  00000-0  22170-3 0  9998,2 55649  70.0002  29.4641 0002758 265.4309  94.6535 14.98355253 49670,6950.115,96.105,573.897,570.063,0.0
55649.0,STARLINK-5469,PAYLOAD,2024-01-05 04:18:13,14.98314767,0.0003031,69.9999,27.6128,271.1363,88.9449,-0.00015947,-1.994e-05,0.0,0 STARLINK-5469,1 55649U 23021X   24005.17932509 -.00001994  00000-0 -15947-3 0  9998,2 55649  69.9999  27.6128 0003031 271.1363  88.9449 14.98314767 49485,6950.24,96.108,574.212,569.998,0.0
55649.0,STARLINK-5469,PAYLOAD,2024-01-05 12:18:53,14.98318601,0.0003076,69.9993,26.7701,274.9292,85.1516,-0.00012871,-1.628e-05,0.0,0 STARLINK-5469,1 55649U 23021X   24005.51312317 -.00001628  00000-0 -12871-3 0  9992,2 55649  69.9993  26.7701 0003076 274.9292  85.1516 14.98318601 49831,6950.228,96.108,574.231,569.955,0.0
55649.0,STARLINK-5469,PAYLOAD,2024-01-06 04:20:14,14.98329421,0.0003032,69.9993,25.0865,272.768,87.3132,-0.00031324,-3.828e-05,0.0,0 STARLINK-5469,1 55649U 23021X   24006.18072223 -.00003828  00000-0 -31324-3 0  9993,2 55649  69.9993  25.0865 0003032 272.7680  87.3132 14.98329421 49631,6950.195,96.107,574.167,569.952,0.0
55649.0,STARLINK-5469,PAYLOAD,2024-01-06 10:44:46,14.98330754,0.0002954,69.9994,24.4132,272.5501,87.532,-0.00026793,-3.288e-05,0.0,0 STARLINK-5469,1 55649U 23021X   24006.44775993 -.00003288  00000-0 -26793-3 0  9990,2 55649  69.9994  24.4132 0002954 272.5501  87.5320 14.98330754 49973,6950.191,96.107,574.109,570.002,0.0
